HAWK-11C                
1 62381U 24247E   26068.51221537  .00009223  00000+0  33290-3 0  9992
2 62381  45.0045 114.8762 0005900 329.7040  30.3502 15.28848020 67743
STARLINK-33707          
1 63401U 25065C   26067.52696120  .00041503  00000+0  15091-2 0  9994
2 63401  43.0003 113.5212 0002011 291.8895  68.1743 15.27581718 52660
